{"fetched_at":"2026-07-23T17:55:08.470Z","source":"https://celestrak.org/NORAD/elements/gp.php?GROUP=oneweb&FORMAT=JSON","constellation":"oneweb","records":[{"OBJECT_NAME":"ONEWEB-0461","OBJECT_ID":"2022-012AD","EPOCH":"2026-07-23T03:31:31.951776","CLASSIFICATION_TYPE":"U","MEAN_MOTION":13.17648039,"ECCENTRICITY":0.00018812,"INCLINATION":87.9164,"RA_OF_ASC_NODE":358.7072,"ARG_OF_PERICENTER":90.6643,"MEAN_ANOMALY":269.4704,"EPHEMERIS_TYPE":0,"NORAD_CAT_ID":51649,"ELEMENT_SET_NO":999,"REV_AT_EPOCH":21862,"BSTAR":0.00013844867,"MEAN_MOTION_DOT":6.7e-7,"MEAN_MOTION_DDOT":0},{"OBJECT_NAME":"ONEWEB-0463","OBJECT_ID":"2022-012AE","EPOCH":"2026-07-22T10:40:39.950976","CLASSIFICATION_TYPE":"U","MEAN_MOTION":13.17648273,"ECCENTRICITY":0.00019258,"INCLINATION":87.9155,"RA_OF_ASC_NODE":358.8658,"ARG_OF_PERICENTER":90.1372,"MEAN_ANOMALY":269.998,"EPHEMERIS_TYPE":0,"NORAD_CAT_ID":51650,"ELEMENT_SET_NO":999,"REV_AT_EPOCH":21831,"BSTAR":0.00021188513,"MEAN_MOTION_DOT":9.5e-7,"MEAN_MOTION_DDOT":0},{"OBJECT_NAME":"ONEWEB-0464","OBJECT_ID":"2022-012AF","EPOCH":"2026-07-23T01:47:10.738176","CLASSIFICATION_TYPE":"U","MEAN_MOTION":13.1037142,"ECCENTRICITY":0.00016318,"INCLINATION":87.8813,"RA_OF_ASC_NODE":29.1279,"ARG_OF_PERICENTER":98.4278,"MEAN_ANOMALY":261.7035,"EPHEMERIS_TYPE":0,"NORAD_CAT_ID":51651,"ELEMENT_SET_NO":999,"REV_AT_EPOCH":21402,"BSTAR":-0.0016577938,"MEAN_MOTION_DOT":-0.00000566,"MEAN_MOTION_DDOT":0},{"OBJECT_NAME":"ONEWEB-0468","OBJECT_ID":"2022-012AG","EPOCH":"2026-07-23T05:34:23.935872","CLASSIFICATION_TYPE":"U","MEAN_MOTION":13.10371403,"ECCENTRICITY":0.00017546,"INCLINATION":87.8814,"RA_OF_ASC_NODE":29.0895,"ARG_OF_PERICENTER":97.0255,"MEAN_ANOMALY":263.1072,"EPHEMERIS_TYPE":0,"NORAD_CAT_ID":51652,"ELEMENT_SET_NO":999,"REV_AT_EPOCH":21402,"BSTAR":-0.0017258828,"MEAN_MOTION_DOT":-0.0000059,"MEAN_MOTION_DDOT":0},{"OBJECT_NAME":"ONEWEB-0473","OBJECT_ID":"2022-012AH","EPOCH":"2026-07-23T01:34:58.139616","CLASSIFICATION_TYPE":"U","MEAN_MOTION":13.10371469,"ECCENTRICITY":0.00018349,"INCLINATION":87.881,"RA_OF_ASC_NODE":29.1249,"ARG_OF_PERICENTER":90.9923,"MEAN_ANOMALY":269.1414,"EPHEMERIS_TYPE":0,"NORAD_CAT_ID":51653,"ELEMENT_SET_NO":999,"REV_AT_EPOCH":21400,"BSTAR":-0.00046762533,"MEAN_MOTION_DOT":-0.00000151,"MEAN_MOTION_DDOT":0},{"OBJECT_NAME":"ONEWEB-0474","OBJECT_ID":"2022-012AJ","EPOCH":"2026-07-23T05:02:40.111872","CLASSIFICATION_TYPE":"U","MEAN_MOTION":13.10370349,"ECCENTRICITY":0.00016801,"INCLINATION":87.8818,"RA_OF_ASC_NODE":29.0836,"ARG_OF_PERICENTER":98.1692,"MEAN_ANOMALY":261.9626,"EPHEMERIS_TYPE":0,"NORAD_CAT_ID":51654,"ELEMENT_SET_NO":999,"REV_AT_EPOCH":21401,"BSTAR":0.0010495279,"MEAN_MOTION_DOT":0.00000379,"MEAN_MOTION_DDOT":0},{"OBJECT_NAME":"ONEWEB-0475","OBJECT_ID":"2022-012AK","EPOCH":"2026-07-22T00:01:35.935968","CLASSIFICATION_TYPE":"U","MEAN_MOTION":13.17648671,"ECCENTRICITY":0.00016158,"INCLINATION":87.9156,"RA_OF_ASC_NODE":358.9477,"ARG_OF_PERICENTER":115.6346,"MEAN_ANOMALY":244.4953,"EPHEMERIS_TYPE":0,"NORAD_CAT_ID":51655,"ELEMENT_SET_NO":999,"REV_AT_EPOCH":21827,"BSTAR":-0.000030865795,"MEAN_MOTION_DOT":1e-8,"MEAN_MOTION_DDOT":0},{"OBJECT_NAME":"ONEWEB-0490","OBJECT_ID":"2022-138A","EPOCH":"2026-07-23T05:21:39.697632","CLASSIFICATION_TYPE":"U","MEAN_MOTION":13.19724466,"ECCENTRICITY":0.00021365,"INCLINATION":87.9189,"RA_OF_ASC_NODE":297.7938,"ARG_OF_PERICENTER":104.2598,"MEAN_ANOMALY":255.8772,"EPHEMERIS_TYPE":0,"NORAD_CAT_ID":54113,"ELEMENT_SET_NO":999,"REV_AT_EPOCH":18158,"BSTAR":0.00014429643,"MEAN_MOTION_DOT":7.1e-7,"MEAN_MOTION_DDOT":0},{"OBJECT_NAME":"ONEWEB-0492","OBJECT_ID":"2022-138B","EPOCH":"2026-07-23T04:08:52.160352","CLASSIFICATION_TYPE":"U","MEAN_MOTION":13.19724233,"ECCENTRICITY":0.0002305,"INCLINATION":87.9181,"RA_OF_ASC_NODE":297.8027,"ARG_OF_PERICENTER":101.7004,"MEAN_ANOMALY":258.4387,"EPHEMERIS_TYPE":0,"NORAD_CAT_ID":54114,"ELEMENT_SET_NO":999,"REV_AT_EPOCH":18158,"BSTAR":-0.000035526649,"MEAN_MOTION_DOT":-1e-8,"MEAN_MOTION_DDOT":0},{"OBJECT_NAME":"ONEWEB-0495","OBJECT_ID":"2022-138C","EPOCH":"2026-07-23T05:26:12.130656","CLASSIFICATION_TYPE":"U","MEAN_MOTION":13.19726735,"ECCENTRICITY":0.00024282,"INCLINATION":87.918,"RA_OF_ASC_NODE":297.7944,"ARG_OF_PERICENTER":114.2152,"MEAN_ANOMALY":245.9235,"EPHEMERIS_TYPE":0,"NORAD_CAT_ID":54115,"ELEMENT_SET_NO":999,"REV_AT_EPOCH":18157,"BSTAR":0.00032618509,"MEAN_MOTION_DOT":0.00000144,"MEAN_MOTION_DDOT":0},{"OBJECT_NAME":"ONEWEB-0497","OBJECT_ID":"2022-138D","EPOCH":"2026-07-23T05:44:23.790336","CLASSIFICATION_TYPE":"U","MEAN_MOTION":13.19724103,"ECCENTRICITY":0.00020976,"INCLINATION":87.9187,"RA_OF_ASC_NODE":297.7865,"ARG_OF_PERICENTER":102.7909,"MEAN_ANOMALY":257.3458,"EPHEMERIS_TYPE":0,"NORAD_CAT_ID":54116,"ELEMENT_SET_NO":999,"REV_AT_EPOCH":18156,"BSTAR":-0.000013908912,"MEAN_MOTION_DOT":7e-8,"MEAN_MOTION_DDOT":0},{"OBJECT_NAME":"ONEWEB-0499","OBJECT_ID":"2022-138E","EPOCH":"2026-07-23T05:20:31.792416","CLASSIFICATION_TYPE":"U","MEAN_MOTION":13.19724423,"ECCENTRICITY":0.00020717,"INCLINATION":87.9185,"RA_OF_ASC_NODE":297.7967,"ARG_OF_PERICENTER":106.8286,"MEAN_ANOMALY":253.3074,"EPHEMERIS_TYPE":0,"NORAD_CAT_ID":54117,"ELEMENT_SET_NO":999,"REV_AT_EPOCH":18157,"BSTAR":0.000099441748,"MEAN_MOTION_DOT":5.3e-7,"MEAN_MOTION_DDOT":0},{"OBJECT_NAME":"ONEWEB-0500","OBJECT_ID":"2022-138F","EPOCH":"2026-07-22T16:39:42.465600","CLASSIFICATION_TYPE":"U","MEAN_MOTION":13.19725835,"ECCENTRICITY":0.0002078,"INCLINATION":87.9186,"RA_OF_ASC_NODE":297.8983,"ARG_OF_PERICENTER":98.2156,"MEAN_ANOMALY":261.9213,"EPHEMERIS_TYPE":0,"NORAD_CAT_ID":54118,"ELEMENT_SET_NO":999,"REV_AT_EPOCH":18151,"BSTAR":-0.00000583618,"MEAN_MOTION_DOT":1.1e-7,"MEAN_MOTION_DDOT":0},{"OBJECT_NAME":"ONEWEB-0501","OBJECT_ID":"2022-138G","EPOCH":"2026-07-23T04:17:59.017056","CLASSIFICATION_TYPE":"U","MEAN_MOTION":13.19726399,"ECCENTRICITY":0.00022456,"INCLINATION":87.9191,"RA_OF_ASC_NODE":297.8022,"ARG_OF_PERICENTER":110.0079,"MEAN_ANOMALY":250.1295,"EPHEMERIS_TYPE":0,"NORAD_CAT_ID":54119,"ELEMENT_SET_NO":999,"REV_AT_EPOCH":18155,"BSTAR":-0.000001880421,"MEAN_MOTION_DOT":1.2e-7,"MEAN_MOTION_DDOT":0},{"OBJECT_NAME":"ONEWEB-0502","OBJECT_ID":"2022-138H","EPOCH":"2026-07-23T05:46:40.038816","CLASSIFICATION_TYPE":"U","MEAN_MOTION":13.19724001,"ECCENTRICITY":0.00020091,"INCLINATION":87.9194,"RA_OF_ASC_NODE":297.779,"ARG_OF_PERICENTER":107.4242,"MEAN_ANOMALY":252.711,"EPHEMERIS_TYPE":0,"NORAD_CAT_ID":54120,"ELEMENT_SET_NO":999,"REV_AT_EPOCH":18158,"BSTAR":0.000017575744,"MEAN_MOTION_DOT":2e-7,"MEAN_MOTION_DDOT":0},{"OBJECT_NAME":"ONEWEB-0503","OBJECT_ID":"2022-138J","EPOCH":"2026-07-23T05:30:44.960256","CLASSIFICATION_TYPE":"U","MEAN_MOTION":13.19726937,"ECCENTRICITY":0.00017705,"INCLINATION":87.919,"RA_OF_ASC_NODE":297.7875,"ARG_OF_PERICENTER":101.0951,"MEAN_ANOMALY":259.0381,"EPHEMERIS_TYPE":0,"NORAD_CAT_ID":54121,"ELEMENT_SET_NO":999,"REV_AT_EPOCH":18157,"BSTAR":0.00011110359,"MEAN_MOTION_DOT":5.7e-7,"MEAN_MOTION_DDOT":0}]}
