ONEWEB-0461             
1 51649U 22012AD  26204.14689759  .00000067  00000+0  13845-3 0  9991
2 51649  87.9164 358.7072 0001881  90.6643 269.4704 13.17648039218623
ONEWEB-0463             
1 51650U 22012AE  26203.44490684  .00000095  00000+0  21189-3 0  9993
2 51650  87.9155 358.8658 0001925  90.1372 269.9980 13.17648273218316
ONEWEB-0464             
1 51651U 22012AF  26204.07442984 -.00000566  00000+0 -16578-2 0  9994
2 51651  87.8813  29.1279 0001631  98.4278 261.7035 13.10371420214029
ONEWEB-0468             
1 51652U 22012AG  26204.23222148 -.00000590  00000+0 -17259-2 0  9995
2 51652  87.8814  29.0895 0001754  97.0255 263.1072 13.10371403214028
ONEWEB-0473             
1 51653U 22012AH  26204.06595069 -.00000151  00000+0 -46763-3 0  9998
2 51653  87.8810  29.1249 0001834  90.9923 269.1414 13.10371469214008
ONEWEB-0474             
1 51654U 22012AJ  26204.21018648  .00000379  00000+0  10495-2 0  9991
2 51654  87.8818  29.0836 0001680  98.1692 261.9626 13.10370349214012
ONEWEB-0475             
1 51655U 22012AK  26203.00111037  .00000001  00000+0 -30866-4 0  9993
2 51655  87.9156 358.9477 0001615 115.6346 244.4953 13.17648671218277
ONEWEB-0490             
1 54113U 22138A   26204.22337613  .00000071  00000+0  14430-3 0  9993
2 54113  87.9189 297.7938 0002136 104.2598 255.8772 13.19724466181586
ONEWEB-0492             
1 54114U 22138B   26204.17282593 -.00000001  00000+0 -35527-4 0  9990
2 54114  87.9181 297.8027 0002305 101.7004 258.4387 13.19724233181584
ONEWEB-0495             
1 54115U 22138C   26204.22652929  .00000144  00000+0  32619-3 0  9995
2 54115  87.9180 297.7944 0002428 114.2152 245.9235 13.19726735181571
ONEWEB-0497             
1 54116U 22138D   26204.23916424  .00000007  00000+0 -13909-4 0  9991
2 54116  87.9187 297.7865 0002097 102.7909 257.3458 13.19724103181565
ONEWEB-0499             
1 54117U 22138E   26204.22259019  .00000053  00000+0  99442-4 0  9997
2 54117  87.9185 297.7967 0002071 106.8286 253.3074 13.19724423181578
ONEWEB-0500             
1 54118U 22138F   26203.69424150  .00000011  00000+0 -58362-5 0  9990
2 54118  87.9186 297.8983 0002078  98.2156 261.9213 13.19725835181518
ONEWEB-0501             
1 54119U 22138G   26204.17915529  .00000012  00000+0 -18804-5 0  9998
2 54119  87.9191 297.8022 0002245 110.0079 250.1295 13.19726399181552
ONEWEB-0502             
1 54120U 22138H   26204.24074119  .00000020  00000+0  17576-4 0  9991
2 54120  87.9194 297.7790 0002009 107.4242 252.7110 13.19724001181583
ONEWEB-0503             
1 54121U 22138J   26204.22968704  .00000057  00000+0  11110-3 0  9999
2 54121  87.9190 297.7875 0001770 101.0951 259.0381 13.19726937181574
